IRIDIUM 36 [-]          
1 24967U 97056C   23338.61828727  .00000734  00000+0  24329-3 0  9991
2 24967  86.3986  48.3565 0002171  89.3013 270.8433 14.36538387371710
IRIDIUM 39 [-]          
1 25042U 97069D   23338.40927438  .00001366  00000+0  36542-3 0  9998
2 25042  86.3911  91.3281 0018989  23.7219 336.4856 14.47547068367799
IRIDIUM 38 [-]          
1 25043U 97069E   23339.45372226  .00000822  00000+0  27097-3 0  9995
2 25043  86.3949 108.4910 0003503 122.0277 238.1261 14.36999279365804
IRIDIUM 42 [-]          
1 25077U 97077A   23339.41574163  .00000768  00000+0  26153-3 0  9992
2 25077  86.3951 113.9953 0002527 105.7854 254.3621 14.35299215360870
IRIDIUM 44 [-]          
1 25078U 97077B   23338.78066057  .00000957  00000+0  30340-3 0  9993
2 25078  86.3947  97.6862 0003852  81.7667 278.3968 14.39106922363071
IRIDIUM 45 [-]          
1 25104U 97082A   23339.43316913  .00009529  00000+0  60035-3 0  9999
2 25104  86.3742 313.2511 0173203 224.1424 134.5878 14.97325418367911
IRIDIUM 24 [-]          
1 25105U 97082B   23339.03962857  .00000902  00000+0  27509-3 0  9995
2 25105  86.3889 317.5071 0013415 121.2863 238.9652 14.40866429362772
IRIDIUM 51 [-]          
1 25262U 98018A   23338.50234960  .00010018  00000+0  53874-3 0  9990
2 25262  86.3904 324.0754 0160504 179.6846 180.4521 15.04208140361939
